CCSDS_OMM_VERS = 2.0
CREATION_DATE  = 
ORIGINATOR     = 

OBJECT_NAME    = HTV-X1
OBJECT_ID      = 2025-241A
CENTER_NAME    = EARTH
REF_FRAME      = TEME
TIME_SYSTEM    = UTC
MEAN_ELEMENT_THEORY = SGP/SGP4

EPOCH          = 2026-04-01T11:23:10.241376
MEAN_MOTION    = 15.32489270
ECCENTRICITY   = .0007223
INCLINATION    = 51.6374
RA_OF_ASC_NODE = 323.2502
ARG_OF_PERICENTER = 261.0182
MEAN_ANOMALY   = 98.9982

EPHEMERIS_TYPE = 0
CLASSIFICATION_TYPE = U
NORAD_CAT_ID   = 66174
ELEMENT_SET_NO = 999
REV_AT_EPOCH   = 2443
BSTAR          = .50371E-4
MEAN_MOTION_DOT = .1232E-4
MEAN_MOTION_DDOT = 0

CCSDS_OMM_VERS = 2.0
CREATION_DATE  = 
ORIGINATOR     = 

OBJECT_NAME    = SZ-21 MODULE
OBJECT_ID      = 2025-246C
CENTER_NAME    = EARTH
REF_FRAME      = TEME
TIME_SYSTEM    = UTC
MEAN_ELEMENT_THEORY = SGP/SGP4

EPOCH          = 2026-04-01T06:45:24.481440
MEAN_MOTION    = 15.70350675
ECCENTRICITY   = .000248
INCLINATION    = 41.4741
RA_OF_ASC_NODE = 64.1049
ARG_OF_PERICENTER = 219.0022
MEAN_ANOMALY   = 141.0642

EPHEMERIS_TYPE = 0
CLASSIFICATION_TYPE = U
NORAD_CAT_ID   = 66515
ELEMENT_SET_NO = 999
REV_AT_EPOCH   = 2162
BSTAR          = .33251E-3
MEAN_MOTION_DOT = .41682E-3
MEAN_MOTION_DDOT = 0

CCSDS_OMM_VERS = 2.0
CREATION_DATE  = 
ORIGINATOR     = 

OBJECT_NAME    = SHENZHOU-22
OBJECT_ID      = 2025-272A
CENTER_NAME    = EARTH
REF_FRAME      = TEME
TIME_SYSTEM    = UTC
MEAN_ELEMENT_THEORY = SGP/SGP4

EPOCH          = 2026-04-01T08:38:43.102176
MEAN_MOTION    = 15.61804306
ECCENTRICITY   = .0003722
INCLINATION    = 41.4670
RA_OF_ASC_NODE = 70.0996
ARG_OF_PERICENTER = 85.9086
MEAN_ANOMALY   = 274.2179

EPHEMERIS_TYPE = 0
CLASSIFICATION_TYPE = U
NORAD_CAT_ID   = 66645
ELEMENT_SET_NO = 999
REV_AT_EPOCH   = 28141
BSTAR          = .27286E-3
MEAN_MOTION_DOT = .24066E-3
MEAN_MOTION_DDOT = 0

CCSDS_OMM_VERS = 2.0
CREATION_DATE  = 
ORIGINATOR     = 

OBJECT_NAME    = SOYUZ-MS 28
OBJECT_ID      = 2025-275A
CENTER_NAME    = EARTH
REF_FRAME      = TEME
TIME_SYSTEM    = UTC
MEAN_ELEMENT_THEORY = SGP/SGP4

EPOCH          = 2026-04-01T10:10:04.736352
MEAN_MOTION    = 15.48695066
ECCENTRICITY   = .0006221
INCLINATION    = 51.6332
RA_OF_ASC_NODE = 319.9685
ARG_OF_PERICENTER = 259.3790
MEAN_ANOMALY   = 100.6498

EPHEMERIS_TYPE = 0
CLASSIFICATION_TYPE = U
NORAD_CAT_ID   = 66664
ELEMENT_SET_NO = 999
REV_AT_EPOCH   = 55994
BSTAR          = .15247E-3
MEAN_MOTION_DOT = .7873E-4
MEAN_MOTION_DDOT = 0

CCSDS_OMM_VERS = 2.0
CREATION_DATE  = 
ORIGINATOR     = 

OBJECT_NAME    = DUPLEX
OBJECT_ID      = 1998-067XS
CENTER_NAME    = EARTH
REF_FRAME      = TEME
TIME_SYSTEM    = UTC
MEAN_ELEMENT_THEORY = SGP/SGP4

EPOCH          = 2026-04-01T02:46:01.589952
MEAN_MOTION    = 15.57724655
ECCENTRICITY   = .0003067
INCLINATION    = 51.6289
RA_OF_ASC_NODE = 317.1598
ARG_OF_PERICENTER = 216.2059
MEAN_ANOMALY   = 143.8726

EPHEMERIS_TYPE = 0
CLASSIFICATION_TYPE = U
NORAD_CAT_ID   = 66906
ELEMENT_SET_NO = 999
REV_AT_EPOCH   = 1862
BSTAR          = .45047E-3
MEAN_MOTION_DOT = .33711E-3
MEAN_MOTION_DDOT = 0

CCSDS_OMM_VERS = 2.0
CREATION_DATE  = 
ORIGINATOR     = 

OBJECT_NAME    = ISS OBJECT XT
OBJECT_ID      = 1998-067XT
CENTER_NAME    = EARTH
REF_FRAME      = TEME
TIME_SYSTEM    = UTC
MEAN_ELEMENT_THEORY = SGP/SGP4

EPOCH          = 2026-04-01T00:07:54.595200
MEAN_MOTION    = 15.77982760
ECCENTRICITY   = .0006663
INCLINATION    = 51.6228
RA_OF_ASC_NODE = 311.1343
ARG_OF_PERICENTER = 226.0366
MEAN_ANOMALY   = 134.0085

EPHEMERIS_TYPE = 0
CLASSIFICATION_TYPE = U
NORAD_CAT_ID   = 66907
ELEMENT_SET_NO = 999
REV_AT_EPOCH   = 1869
BSTAR          = .14153E-2
MEAN_MOTION_DOT = .252342E-2
MEAN_MOTION_DDOT = 0

CCSDS_OMM_VERS = 2.0
CREATION_DATE  = 
ORIGINATOR     = 

OBJECT_NAME    = ISS OBJECT XU
OBJECT_ID      = 1998-067XU
CENTER_NAME    = EARTH
REF_FRAME      = TEME
TIME_SYSTEM    = UTC
MEAN_ELEMENT_THEORY = SGP/SGP4

EPOCH          = 2026-04-01T00:01:40.719936
MEAN_MOTION    = 15.78272322
ECCENTRICITY   = .000692
INCLINATION    = 51.6232
RA_OF_ASC_NODE = 311.1009
ARG_OF_PERICENTER = 225.5179
MEAN_ANOMALY   = 134.5256

EPHEMERIS_TYPE = 0
CLASSIFICATION_TYPE = U
NORAD_CAT_ID   = 66908
ELEMENT_SET_NO = 999
REV_AT_EPOCH   = 1869
BSTAR          = .14515E-2
MEAN_MOTION_DOT = .262522E-2
MEAN_MOTION_DDOT = 0

CCSDS_OMM_VERS = 2.0
CREATION_DATE  = 
ORIGINATOR     = 

OBJECT_NAME    = SILVERSAT
OBJECT_ID      = 1998-067XV
CENTER_NAME    = EARTH
REF_FRAME      = TEME
TIME_SYSTEM    = UTC
MEAN_ELEMENT_THEORY = SGP/SGP4

EPOCH          = 2026-04-01T00:09:49.991040
MEAN_MOTION    = 15.84315758
ECCENTRICITY   = .0008026
INCLINATION    = 51.6192
RA_OF_ASC_NODE = 309.6226
ARG_OF_PERICENTER = 232.8926
MEAN_ANOMALY   = 127.1344

EPHEMERIS_TYPE = 0
CLASSIFICATION_TYPE = U
NORAD_CAT_ID   = 66909
ELEMENT_SET_NO = 999
REV_AT_EPOCH   = 1871
BSTAR          = .15922E-2
MEAN_MOTION_DOT = .386729E-2
MEAN_MOTION_DDOT = 0

CCSDS_OMM_VERS = 2.0
CREATION_DATE  = 
ORIGINATOR     = 

OBJECT_NAME    = ISS OBJECT XW
OBJECT_ID      = 1998-067XW
CENTER_NAME    = EARTH
REF_FRAME      = TEME
TIME_SYSTEM    = UTC
MEAN_ELEMENT_THEORY = SGP/SGP4

EPOCH          = 2026-03-31T21:20:08.184768
MEAN_MOTION    = 15.76237796
ECCENTRICITY   = .00068822
INCLINATION    = 51.6213
RA_OF_ASC_NODE = 311.8494
ARG_OF_PERICENTER = 221.1915
MEAN_ANOMALY   = 138.8566

EPHEMERIS_TYPE = 0
CLASSIFICATION_TYPE = U
NORAD_CAT_ID   = 66910
ELEMENT_SET_NO = 999
REV_AT_EPOCH   = 1867
BSTAR          = .12590626E-2
MEAN_MOTION_DOT = .206554E-2
MEAN_MOTION_DDOT = 0

CCSDS_OMM_VERS = 2.0
CREATION_DATE  = 
ORIGINATOR     = 

OBJECT_NAME    = ISS OBJECT XX
OBJECT_ID      = 1998-067XX
CENTER_NAME    = EARTH
REF_FRAME      = TEME
TIME_SYSTEM    = UTC
MEAN_ELEMENT_THEORY = SGP/SGP4

EPOCH          = 2026-03-31T20:54:36.817344
MEAN_MOTION    = 15.92173368
ECCENTRICITY   = .00099555
INCLINATION    = 51.6169
RA_OF_ASC_NODE = 308.6766
ARG_OF_PERICENTER = 236.6927
MEAN_ANOMALY   = 123.3127

EPHEMERIS_TYPE = 0
CLASSIFICATION_TYPE = U
NORAD_CAT_ID   = 66911
ELEMENT_SET_NO = 999
REV_AT_EPOCH   = 1870
BSTAR          = .17626962E-2
MEAN_MOTION_DOT = .60442E-2
MEAN_MOTION_DDOT = .15627483E-3

CCSDS_OMM_VERS = 2.0
CREATION_DATE  = 
ORIGINATOR     = 

OBJECT_NAME    = ISS OBJECT XY
OBJECT_ID      = 1998-067XY
CENTER_NAME    = EARTH
REF_FRAME      = TEME
TIME_SYSTEM    = UTC
MEAN_ELEMENT_THEORY = SGP/SGP4

EPOCH          = 2026-03-31T23:33:14.804640
MEAN_MOTION    = 15.68405535
ECCENTRICITY   = .0004673
INCLINATION    = 51.6257
RA_OF_ASC_NODE = 314.0012
ARG_OF_PERICENTER = 219.6211
MEAN_ANOMALY   = 140.4444

EPHEMERIS_TYPE = 0
CLASSIFICATION_TYPE = U
NORAD_CAT_ID   = 66912
ELEMENT_SET_NO = 999
REV_AT_EPOCH   = 1864
BSTAR          = .10957E-2
MEAN_MOTION_DOT = .127422E-2
MEAN_MOTION_DDOT = 0

CCSDS_OMM_VERS = 2.0
CREATION_DATE  = 
ORIGINATOR     = 

OBJECT_NAME    = KNACKSAT-2
OBJECT_ID      = 1998-067XZ
CENTER_NAME    = EARTH
REF_FRAME      = TEME
TIME_SYSTEM    = UTC
MEAN_ELEMENT_THEORY = SGP/SGP4

EPOCH          = 2026-03-31T23:54:00.274464
MEAN_MOTION    = 15.53721795
ECCENTRICITY   = .001024
INCLINATION    = 51.6314
RA_OF_ASC_NODE = 320.8633
ARG_OF_PERICENTER = 267.3943
MEAN_ANOMALY   = 92.5875

EPHEMERIS_TYPE = 0
CLASSIFICATION_TYPE = U
NORAD_CAT_ID   = 67683
ELEMENT_SET_NO = 999
REV_AT_EPOCH   = 825
BSTAR          = .70857E-3
MEAN_MOTION_DOT = .46098E-3
MEAN_MOTION_DDOT = 0

